CCSDS_OMM_VERS = 2.0
CREATION_DATE  = 
ORIGINATOR     = 

OBJECT_NAME    = SL-14 R/B
OBJECT_ID      = 1986-046B
CENTER_NAME    = EARTH
REF_FRAME      = TEME
TIME_SYSTEM    = UTC
MEAN_ELEMENT_THEORY = SGP/SGP4

EPOCH          = 2026-03-31T03:48:35.714880
MEAN_MOTION    = 14.85611918
ECCENTRICITY   = .0023748
INCLINATION    = 82.4807
RA_OF_ASC_NODE = 59.8913
ARG_OF_PERICENTER = 153.5509
MEAN_ANOMALY   = 206.6925

EPHEMERIS_TYPE = 0
CLASSIFICATION_TYPE = U
NORAD_CAT_ID   = 16792
ELEMENT_SET_NO = 999
REV_AT_EPOCH   = 12959
BSTAR          = .71633E-4
MEAN_MOTION_DOT = .647E-5
MEAN_MOTION_DDOT = 0

CCSDS_OMM_VERS = 2.0
CREATION_DATE  = 
ORIGINATOR     = 

OBJECT_NAME    = SL-14 R/B
OBJECT_ID      = 1986-055B
CENTER_NAME    = EARTH
REF_FRAME      = TEME
TIME_SYSTEM    = UTC
MEAN_ELEMENT_THEORY = SGP/SGP4

EPOCH          = 2026-03-31T03:43:10.176096
MEAN_MOTION    = 14.85662249
ECCENTRICITY   = .0017328
INCLINATION    = 82.5168
RA_OF_ASC_NODE = 106.4927
ARG_OF_PERICENTER = 260.4085
MEAN_ANOMALY   = 168.6196

EPHEMERIS_TYPE = 0
CLASSIFICATION_TYPE = U
NORAD_CAT_ID   = 16882
ELEMENT_SET_NO = 999
REV_AT_EPOCH   = 12255
BSTAR          = .67109E-4
MEAN_MOTION_DOT = .607E-5
MEAN_MOTION_DDOT = 0

CCSDS_OMM_VERS = 2.0
CREATION_DATE  = 
ORIGINATOR     = 

OBJECT_NAME    = AJISAI (EGS)
OBJECT_ID      = 1986-061A
CENTER_NAME    = EARTH
REF_FRAME      = TEME
TIME_SYSTEM    = UTC
MEAN_ELEMENT_THEORY = SGP/SGP4

EPOCH          = 2026-03-31T04:09:02.491200
MEAN_MOTION    = 12.44515632
ECCENTRICITY   = .0011339
INCLINATION    = 50.0116
RA_OF_ASC_NODE = 27.2858
ARG_OF_PERICENTER = 342.3606
MEAN_ANOMALY   = 156.4596

EPHEMERIS_TYPE = 0
CLASSIFICATION_TYPE = U
NORAD_CAT_ID   = 16908
ELEMENT_SET_NO = 999
REV_AT_EPOCH   = 47067
BSTAR          = -.19991E-4
MEAN_MOTION_DOT = -.1E-5
MEAN_MOTION_DDOT = 0

CCSDS_OMM_VERS = 2.0
CREATION_DATE  = 
ORIGINATOR     = 

OBJECT_NAME    = SL-14 R/B
OBJECT_ID      = 1987-024B
CENTER_NAME    = EARTH
REF_FRAME      = TEME
TIME_SYSTEM    = UTC
MEAN_ELEMENT_THEORY = SGP/SGP4

EPOCH          = 2026-03-31T04:25:25.374144
MEAN_MOTION    = 14.86153417
ECCENTRICITY   = .0018026
INCLINATION    = 82.5256
RA_OF_ASC_NODE = 72.5550
ARG_OF_PERICENTER = 184.6239
MEAN_ANOMALY   = 175.4814

EPHEMERIS_TYPE = 0
CLASSIFICATION_TYPE = U
NORAD_CAT_ID   = 17567
ELEMENT_SET_NO = 999
REV_AT_EPOCH   = 9132
BSTAR          = .72525E-4
MEAN_MOTION_DOT = .662E-5
MEAN_MOTION_DDOT = 0

CCSDS_OMM_VERS = 2.0
CREATION_DATE  = 
ORIGINATOR     = 

OBJECT_NAME    = COSMOS 1833
OBJECT_ID      = 1987-027A
CENTER_NAME    = EARTH
REF_FRAME      = TEME
TIME_SYSTEM    = UTC
MEAN_ELEMENT_THEORY = SGP/SGP4

EPOCH          = 2026-03-30T22:56:07.814400
MEAN_MOTION    = 14.13046471
ECCENTRICITY   = .0023165
INCLINATION    = 70.9170
RA_OF_ASC_NODE = 281.3199
ARG_OF_PERICENTER = 183.0940
MEAN_ANOMALY   = 177.0042

EPHEMERIS_TYPE = 0
CLASSIFICATION_TYPE = U
NORAD_CAT_ID   = 17589
ELEMENT_SET_NO = 999
REV_AT_EPOCH   = 1332
BSTAR          = -.12677E-3
MEAN_MOTION_DOT = -.285E-5
MEAN_MOTION_DDOT = 0

CCSDS_OMM_VERS = 2.0
CREATION_DATE  = 
ORIGINATOR     = 

OBJECT_NAME    = SL-16 R/B
OBJECT_ID      = 1987-027B
CENTER_NAME    = EARTH
REF_FRAME      = TEME
TIME_SYSTEM    = UTC
MEAN_ELEMENT_THEORY = SGP/SGP4

EPOCH          = 2026-03-31T01:54:17.898912
MEAN_MOTION    = 14.17166223
ECCENTRICITY   = .0002877
INCLINATION    = 71.0018
RA_OF_ASC_NODE = 231.4176
ARG_OF_PERICENTER = 89.6471
MEAN_ANOMALY   = 270.4982

EPHEMERIS_TYPE = 0
CLASSIFICATION_TYPE = U
NORAD_CAT_ID   = 17590
ELEMENT_SET_NO = 999
REV_AT_EPOCH   = 1837
BSTAR          = .91502E-4
MEAN_MOTION_DOT = .137E-5
MEAN_MOTION_DDOT = 0

CCSDS_OMM_VERS = 2.0
CREATION_DATE  = 
ORIGINATOR     = 

OBJECT_NAME    = SL-14 R/B
OBJECT_ID      = 1987-038B
CENTER_NAME    = EARTH
REF_FRAME      = TEME
TIME_SYSTEM    = UTC
MEAN_ELEMENT_THEORY = SGP/SGP4

EPOCH          = 2026-03-30T23:43:03.251712
MEAN_MOTION    = 14.85389208
ECCENTRICITY   = .0020763
INCLINATION    = 82.4978
RA_OF_ASC_NODE = 276.7375
ARG_OF_PERICENTER = 94.0328
MEAN_ANOMALY   = 266.3262

EPHEMERIS_TYPE = 0
CLASSIFICATION_TYPE = U
NORAD_CAT_ID   = 17912
ELEMENT_SET_NO = 999
REV_AT_EPOCH   = 8239
BSTAR          = .71158E-4
MEAN_MOTION_DOT = .639E-5
MEAN_MOTION_DDOT = 0

CCSDS_OMM_VERS = 2.0
CREATION_DATE  = 
ORIGINATOR     = 

OBJECT_NAME    = COSMOS 1844
OBJECT_ID      = 1987-041A
CENTER_NAME    = EARTH
REF_FRAME      = TEME
TIME_SYSTEM    = UTC
MEAN_ELEMENT_THEORY = SGP/SGP4

EPOCH          = 2026-03-31T02:37:49.801152
MEAN_MOTION    = 14.14558561
ECCENTRICITY   = .0031201
INCLINATION    = 70.9016
RA_OF_ASC_NODE = 348.9974
ARG_OF_PERICENTER = 346.5229
MEAN_ANOMALY   = 13.5055

EPHEMERIS_TYPE = 0
CLASSIFICATION_TYPE = U
NORAD_CAT_ID   = 17973
ELEMENT_SET_NO = 999
REV_AT_EPOCH   = 661
BSTAR          = .2382E-3
MEAN_MOTION_DOT = .411E-5
MEAN_MOTION_DDOT = 0

CCSDS_OMM_VERS = 2.0
CREATION_DATE  = 
ORIGINATOR     = 

OBJECT_NAME    = SL-14 R/B
OBJECT_ID      = 1987-055B
CENTER_NAME    = EARTH
REF_FRAME      = TEME
TIME_SYSTEM    = UTC
MEAN_ELEMENT_THEORY = SGP/SGP4

EPOCH          = 2026-03-31T03:55:16.630752
MEAN_MOTION    = 14.85650956
ECCENTRICITY   = .0019388
INCLINATION    = 82.5003
RA_OF_ASC_NODE = 328.7956
ARG_OF_PERICENTER = 305.2730
MEAN_ANOMALY   = 54.6672

EPHEMERIS_TYPE = 0
CLASSIFICATION_TYPE = U
NORAD_CAT_ID   = 18153
ELEMENT_SET_NO = 999
REV_AT_EPOCH   = 7312
BSTAR          = .61112E-4
MEAN_MOTION_DOT = .555E-5
MEAN_MOTION_DDOT = 0

CCSDS_OMM_VERS = 2.0
CREATION_DATE  = 
ORIGINATOR     = 

OBJECT_NAME    = COSMOS 1867
OBJECT_ID      = 1987-060A
CENTER_NAME    = EARTH
REF_FRAME      = TEME
TIME_SYSTEM    = UTC
MEAN_ELEMENT_THEORY = SGP/SGP4

EPOCH          = 2026-03-30T19:39:11.315808
MEAN_MOTION    = 14.31506381
ECCENTRICITY   = .00148619
INCLINATION    = 65.0097
RA_OF_ASC_NODE = 247.5298
ARG_OF_PERICENTER = 279.9032
MEAN_ANOMALY   = 80.0374

EPHEMERIS_TYPE = 0
CLASSIFICATION_TYPE = U
NORAD_CAT_ID   = 18187
ELEMENT_SET_NO = 999
REV_AT_EPOCH   = 2296
BSTAR          = .28496524E-4
MEAN_MOTION_DOT = -.24E-6
MEAN_MOTION_DDOT = 0

CCSDS_OMM_VERS = 2.0
CREATION_DATE  = 
ORIGINATOR     = 

OBJECT_NAME    = SL-14 R/B
OBJECT_ID      = 1988-001B
CENTER_NAME    = EARTH
REF_FRAME      = TEME
TIME_SYSTEM    = UTC
MEAN_ELEMENT_THEORY = SGP/SGP4

EPOCH          = 2026-03-30T22:59:45.860352
MEAN_MOTION    = 14.85551379
ECCENTRICITY   = .0018519
INCLINATION    = 82.5159
RA_OF_ASC_NODE = 175.3630
ARG_OF_PERICENTER = 163.5694
MEAN_ANOMALY   = 196.6127

EPHEMERIS_TYPE = 0
CLASSIFICATION_TYPE = U
NORAD_CAT_ID   = 18749
ELEMENT_SET_NO = 999
REV_AT_EPOCH   = 4518
BSTAR          = .67201E-4
MEAN_MOTION_DOT = .607E-5
MEAN_MOTION_DDOT = 0

CCSDS_OMM_VERS = 2.0
CREATION_DATE  = 
ORIGINATOR     = 

OBJECT_NAME    = COSMOS 1933
OBJECT_ID      = 1988-020A
CENTER_NAME    = EARTH
REF_FRAME      = TEME
TIME_SYSTEM    = UTC
MEAN_ELEMENT_THEORY = SGP/SGP4

EPOCH          = 2026-03-30T21:11:11.278752
MEAN_MOTION    = 15.18186716
ECCENTRICITY   = .0005342
INCLINATION    = 82.5121
RA_OF_ASC_NODE = 229.9384
ARG_OF_PERICENTER = 118.3655
MEAN_ANOMALY   = 241.8118

EPHEMERIS_TYPE = 0
CLASSIFICATION_TYPE = U
NORAD_CAT_ID   = 18958
ELEMENT_SET_NO = 999
REV_AT_EPOCH   = 5344
BSTAR          = .30617E-3
MEAN_MOTION_DOT = .6289E-4
MEAN_MOTION_DDOT = 0

